[{"OBJECT_NAME":"ONEWEB-0356","OBJECT_ID":"2021-090E","EPOCH":"2026-03-09T16:21:42.962400","MEAN_MOTION":13.20770247,"ECCENTRICITY":7.619e-5,"INCLINATION":87.9168,"RA_OF_ASC_NODE":294.3024,"ARG_OF_PERICENTER":76.5341,"MEAN_ANOMALY":283.5878,"EPHEMERIS_TYPE":0,"CLASSIFICATION_TYPE":"U","NORAD_CAT_ID":49283,"ELEMENT_SET_NO":999,"REV_AT_EPOCH":21669,"BSTAR":-0.00012805887,"MEAN_MOTION_DOT":-3.9e-7,"MEAN_MOTION_DDOT":0},{"OBJECT_NAME":"THORAD AGENA D DEB","OBJECT_ID":"1970-025BG","EPOCH":"2026-03-09T18:54:55.456704","MEAN_MOTION":13.34964089,"ECCENTRICITY":0.01205285,"INCLINATION":100.4251,"RA_OF_ASC_NODE":108.4738,"ARG_OF_PERICENTER":326.1799,"MEAN_ANOMALY":94.8419,"EPHEMERIS_TYPE":0,"CLASSIFICATION_TYPE":"U","NORAD_CAT_ID":4683,"ELEMENT_SET_NO":999,"REV_AT_EPOCH":71422,"BSTAR":0.0005917531,"MEAN_MOTION_DOT":2.63e-6,"MEAN_MOTION_DDOT":0}]
